[{"OBJECT_NAME":"HYPERFIELD-1A","OBJECT_ID":"2024-149CY","EPOCH":"2026-03-09T18:21:25.814304","MEAN_MOTION":15.29681349,"ECCENTRICITY":0.00038648,"INCLINATION":97.3842,"RA_OF_ASC_NODE":149.5066,"ARG_OF_PERICENTER":313.7844,"MEAN_ANOMALY":46.3076,"EPHEMERIS_TYPE":0,"CLASSIFICATION_TYPE":"U","NORAD_CAT_ID":60562,"ELEMENT_SET_NO":999,"REV_AT_EPOCH":8683,"BSTAR":0.00030052114,"MEAN_MOTION_DOT":8.569e-5,"MEAN_MOTION_DDOT":0},{"OBJECT_NAME":"STARLINK-34650","OBJECT_ID":"2025-245AA","EPOCH":"2026-03-09T21:50:18.530016","MEAN_MOTION":15.30222178,"ECCENTRICITY":0.00018197,"INCLINATION":53.1617,"RA_OF_ASC_NODE":282.6206,"ARG_OF_PERICENTER":169.1554,"MEAN_ANOMALY":190.9487,"EPHEMERIS_TYPE":0,"CLASSIFICATION_TYPE":"U","NORAD_CAT_ID":66258,"ELEMENT_SET_NO":999,"REV_AT_EPOCH":2129,"BSTAR":0.0011960245,"MEAN_MOTION_DOT":0.00035257,"MEAN_MOTION_DDOT":0}]
